{
    "links": {
        "self": "http://www.neowsapp.com/rest/v1/neo/3856709?api_key=iIulBulltgU6a56xZRHN4H3l9WmuAYTsLGpBGhQ2"
    },
    "id": "3856709",
    "neo_reference_id": "3856709",
    "name": "(2019 SH4)",
    "designation": "2019 SH4",
    "nasa_jpl_url": "http://ssd.jpl.nasa.gov/sbdb.cgi?sstr=3856709",
    "absolute_magnitude_h": 22.8,
    "estimated_diameter": {
        "kilometers": {
            "estimated_diameter_min": 0.0732073989,
            "estimated_diameter_max": 0.1636967205
        },
        "meters": {
            "estimated_diameter_min": 73.2073989347,
            "estimated_diameter_max": 163.696720474
        },
        "miles": {
            "estimated_diameter_min": 0.0454889547,
            "estimated_diameter_max": 0.1017163949
        },
        "feet": {
            "estimated_diameter_min": 240.181762721,
            "estimated_diameter_max": 537.0627483999
        }
    },
    "is_potentially_hazardous_asteroid": false,
    "close_approach_data": [
        {
            "close_approach_date": "2019-10-12",
            "close_approach_date_full": "2019-Oct-12 09:53",
            "epoch_date_close_approach": 1570873980000,
            "relative_velocity": {
                "kilometers_per_second": "26.150430871",
                "kilometers_per_hour": "94141.55113574",
                "miles_per_hour": "58495.8988154269"
            },
            "miss_distance": {
                "astronomical": "0.055515979",
                "lunar": "21.595715831",
                "kilometers": "8305072.20936473",
                "miles": "5160532.573824074"
            },
            "orbiting_body": "Earth"
        },
        {
            "close_approach_date": "2021-04-10",
            "close_approach_date_full": "2021-Apr-10 11:52",
            "epoch_date_close_approach": 1618055520000,
            "relative_velocity": {
                "kilometers_per_second": "6.5430708386",
                "kilometers_per_hour": "23555.0550189324",
                "miles_per_hour": "14636.1951588472"
            },
            "miss_distance": {
                "astronomical": "1.7420028922",
                "lunar": "677.6391250658",
                "kilometers": "260599922.206959614",
                "miles": "161929282.8987821132"
            },
            "orbiting_body": "Juptr"
        },
        {
            "close_approach_date": "2080-05-30",
            "close_approach_date_full": "2080-May-30 19:02",
            "epoch_date_close_approach": 3484321320000,
            "relative_velocity": {
                "kilometers_per_second": "5.8295165484",
                "kilometers_per_hour": "20986.2595742122",
                "miles_per_hour": "13040.0455670987"
            },
            "miss_distance": {
                "astronomical": "1.6007798939",
                "lunar": "622.7033787271",
                "kilometers": "239473262.466265993",
                "miles": "148801785.2660689834"
            },
            "orbiting_body": "Juptr"
        }
    ],
    "orbital_data": {
        "orbit_id": "7",
        "orbit_determination_date": "2020-09-11 07:44:24",
        "first_observation_date": "2019-09-24",
        "last_observation_date": "2019-10-10",
        "data_arc_in_days": 16,
        "observations_used": 38,
        "orbit_uncertainty": "8",
        "minimum_orbit_intersection": ".0304819",
        "jupiter_tisserand_invariant": "3.387",
        "epoch_osculation": "2458753.5",
        "eccentricity": ".7744922026800002",
        "semi_major_axis": "1.995562397896067",
        "inclination": "5.448126671656279",
        "ascending_node_longitude": "182.1532731573764",
        "orbital_period": "1029.66605326638",
        "perihelion_distance": ".450014880764159",
        "perihelion_argument": "303.7807003955739",
        "aphelion_distance": "3.541109915027974",
        "perihelion_time": "2458814.122226389484",
        "mean_anomaly": "338.8047771110035",
        "mean_motion": ".3496279195162184",
        "equinox": "J2000",
        "orbit_class": {
            "orbit_class_type": "APO",
            "orbit_class_description": "Near-Earth asteroid orbits which cross the Earth’s orbit similar to that of 1862 Apollo",
            "orbit_class_range": "a (semi-major axis) > 1.0 AU; q (perihelion) < 1.017 AU"
        }
    },
    "is_sentry_object": false
}